{"fetched_at":"2026-03-30T13:17:50Z","count":15418,"tles":[{"name":"STARLINK-1231","line1":"1 45212U 20012AL  26087.85522571  .00043682  00000+0  18563-2 0  9994","line2":"2 45212  53.0417 287.6572 0003731 165.0527 195.0580 15.22640892338149","category":"Starlink"}]}